ONEWEB-0661             
1 55821U 23029AB  23320.90996947  .00000090  00000+0  20710-3 0  9991
2 55821  87.8960 117.5026 0001387  71.6577 288.4703 13.14503323 35460
ONEWEB-0662             
1 55822U 23029AC  23320.71647712 -.00000039  00000+0 -14004-3 0  9998
2 55822  87.8955 117.5491 0001138  78.9745 281.1513 13.14510538 35489
ONEWEB-0663             
1 55823U 23029AD  23320.34433580  .00000005  00000+0 -19902-4 0  9999
2 55823  87.9168 102.3554 0002013  83.1640 276.9722 13.20573876 36558
ONEWEB-0664             
1 55824U 23029AE  23320.91668981 -.00004899  00000+0 -12128-1 0  9994
2 55824  87.9142 102.2535 0002385  82.9943 147.7770 13.20548437  5306
ONEWEB-0665             
1 55825U 23029AF  23320.90679939  .00000074  00000+0  16592-3 0  9999
2 55825  87.8960 117.4788 0001279  77.4390 282.6883 13.14503212 35489
ONEWEB-0666             
1 55826U 23029AG  23320.91668981  .00000013  00000+0  00000+0 0  9992
2 55826  87.9186 102.2454 0001241 115.0415 144.2354 13.21106206  5314
ONEWEB-0667             
1 55827U 23029AH  23320.40125929  .00000040  00000+0  67485-4 0  9992
2 55827  87.9167 102.2820 0001601  79.1844 280.9470 13.20737708 36561
ONEWEB-0669             
1 55828U 23029AJ  23320.84950844  .00001392  00000+0  33912-2 0  9990
2 55828  87.9163 102.2298 0002374  85.6115 274.5289 13.20756787 36620
